[{"OBJECT_NAME":"FLOCK 4BE-27","OBJECT_ID":"2024-149AX","EPOCH":"2026-03-09T18:04:53.053248","MEAN_MOTION":15.32593322,"ECCENTRICITY":0.00027324,"INCLINATION":97.3862,"RA_OF_ASC_NODE":150.6783,"ARG_OF_PERICENTER":305.898,"MEAN_ANOMALY":54.2008,"EPHEMERIS_TYPE":0,"CLASSIFICATION_TYPE":"U","NORAD_CAT_ID":60513,"ELEMENT_SET_NO":999,"REV_AT_EPOCH":8690,"BSTAR":0.00036576028,"MEAN_MOTION_DOT":0.00011439,"MEAN_MOTION_DDOT":0},{"OBJECT_NAME":"CZ-6A DEB","OBJECT_ID":"2024-140FM","EPOCH":"2026-03-09T15:58:48.665856","MEAN_MOTION":15.24907574,"ECCENTRICITY":0.01008734,"INCLINATION":89.2247,"RA_OF_ASC_NODE":296.4931,"ARG_OF_PERICENTER":41.247,"MEAN_ANOMALY":319.6342,"EPHEMERIS_TYPE":0,"CLASSIFICATION_TYPE":"U","NORAD_CAT_ID":60786,"ELEMENT_SET_NO":999,"REV_AT_EPOCH":8558,"BSTAR":0.0022097808,"MEAN_MOTION_DOT":0.0006402,"MEAN_MOTION_DDOT":0}]
